[{"OBJECT_NAME":"HULIANWANG DIGUI-81","OBJECT_ID":"2025-187J","EPOCH":"2026-03-02T19:48:20.596896","MEAN_MOTION":13.29341153,"ECCENTRICITY":0.0001071,"INCLINATION":50.0054,"RA_OF_ASC_NODE":227.296,"ARG_OF_PERICENTER":128.5998,"MEAN_ANOMALY":231.497,"EPHEMERIS_TYPE":0,"CLASSIFICATION_TYPE":"U","NORAD_CAT_ID":65313,"ELEMENT_SET_NO":999,"REV_AT_EPOCH":2556,"BSTAR":6.2087e-5,"MEAN_MOTION_DOT":-9.5e-7,"MEAN_MOTION_DDOT":0},{"OBJECT_NAME":"HULIANWANG DIGUI-82","OBJECT_ID":"2025-220A","EPOCH":"2026-03-02T19:01:23.795328","MEAN_MOTION":13.24421714,"ECCENTRICITY":0.0002226,"INCLINATION":86.4897,"RA_OF_ASC_NODE":79.7972,"ARG_OF_PERICENTER":102.6303,"MEAN_ANOMALY":257.508,"EPHEMERIS_TYPE":0,"CLASSIFICATION_TYPE":"U","NORAD_CAT_ID":65817,"ELEMENT_SET_NO":999,"REV_AT_EPOCH":2083,"BSTAR":9.2208e-5,"MEAN_MOTION_DOT":5.4e-7,"MEAN_MOTION_DDOT":0},{"OBJECT_NAME":"HULIANWANG DIGUI-83","OBJECT_ID":"2025-220B","EPOCH":"2026-03-02T18:50:35.199168","MEAN_MOTION":13.24420867,"ECCENTRICITY":0.000222,"INCLINATION":86.4919,"RA_OF_ASC_NODE":79.8295,"ARG_OF_PERICENTER":102.593,"MEAN_ANOMALY":257.5452,"EPHEMERIS_TYPE":0,"CLASSIFICATION_TYPE":"U","NORAD_CAT_ID":65818,"ELEMENT_SET_NO":999,"REV_AT_EPOCH":2083,"BSTAR":9.6422e-5,"MEAN_MOTION_DOT":5.6e-7,"MEAN_MOTION_DDOT":0},{"OBJECT_NAME":"HULIANWANG DIGUI-84","OBJECT_ID":"2025-220C","EPOCH":"2026-03-02T18:39:40.212864","MEAN_MOTION":13.24421291,"ECCENTRICITY":0.0002216,"INCLINATION":86.4857,"RA_OF_ASC_NODE":79.7246,"ARG_OF_PERICENTER":101.5569,"MEAN_ANOMALY":258.5814,"EPHEMERIS_TYPE":0,"CLASSIFICATION_TYPE":"U","NORAD_CAT_ID":65819,"ELEMENT_SET_NO":999,"REV_AT_EPOCH":2083,"BSTAR":0.00011509,"MEAN_MOTION_DOT":6.4e-7,"MEAN_MOTION_DDOT":0},{"OBJECT_NAME":"HULIANWANG DIGUI-85","OBJECT_ID":"2025-220D","EPOCH":"2026-03-02T18:28:43.580640","MEAN_MOTION":13.24421811,"ECCENTRICITY":0.0002209,"INCLINATION":86.4917,"RA_OF_ASC_NODE":79.8197,"ARG_OF_PERICENTER":102.7226,"MEAN_ANOMALY":257.4155,"EPHEMERIS_TYPE":0,"CLASSIFICATION_TYPE":"U","NORAD_CAT_ID":65820,"ELEMENT_SET_NO":999,"REV_AT_EPOCH":2083,"BSTAR":0.00014075,"MEAN_MOTION_DOT":7.5e-7,"MEAN_MOTION_DDOT":0},{"OBJECT_NAME":"HULIANWANG DIGUI-86","OBJECT_ID":"2025-220E","EPOCH":"2026-03-02T18:17:58.256448","MEAN_MOTION":13.24420634,"ECCENTRICITY":0.0002203,"INCLINATION":86.4896,"RA_OF_ASC_NODE":79.7815,"ARG_OF_PERICENTER":102.5991,"MEAN_ANOMALY":257.539,"EPHEMERIS_TYPE":0,"CLASSIFICATION_TYPE":"U","NORAD_CAT_ID":65821,"ELEMENT_SET_NO":999,"REV_AT_EPOCH":2083,"BSTAR":0.00013584,"MEAN_MOTION_DOT":7.3e-7,"MEAN_MOTION_DDOT":0},{"OBJECT_NAME":"HULIANWANG DIGUI-87","OBJECT_ID":"2025-231A","EPOCH":"2026-03-02T18:52:28.114464","MEAN_MOTION":13.29330143,"ECCENTRICITY":6.07e-5,"INCLINATION":49.9988,"RA_OF_ASC_NODE":197.4837,"ARG_OF_PERICENTER":173.5166,"MEAN_ANOMALY":186.5714,"EPHEMERIS_TYPE":0,"CLASSIFICATION_TYPE":"U","NORAD_CAT_ID":65995,"ELEMENT_SET_NO":999,"REV_AT_EPOCH":1873,"BSTAR":2.6684e-5,"MEAN_MOTION_DOT":-1.12e-6,"MEAN_MOTION_DDOT":0},{"OBJECT_NAME":"HULIANWANG DIGUI-88","OBJECT_ID":"2025-231B","EPOCH":"2026-03-02T19:04:31.647936","MEAN_MOTION":13.29329164,"ECCENTRICITY":6.21e-5,"INCLINATION":49.9975,"RA_OF_ASC_NODE":197.5138,"ARG_OF_PERICENTER":178.5639,"MEAN_ANOMALY":181.5235,"EPHEMERIS_TYPE":0,"CLASSIFICATION_TYPE":"U","NORAD_CAT_ID":65996,"ELEMENT_SET_NO":999,"REV_AT_EPOCH":1873,"BSTAR":3.6744e-5,"MEAN_MOTION_DOT":-1.07e-6,"MEAN_MOTION_DDOT":0},{"OBJECT_NAME":"HULIANWANG DIGUI-89","OBJECT_ID":"2025-231C","EPOCH":"2026-03-02T18:40:26.169024","MEAN_MOTION":13.29329818,"ECCENTRICITY":6.38e-5,"INCLINATION":49.9953,"RA_OF_ASC_NODE":197.4014,"ARG_OF_PERICENTER":179.7829,"MEAN_ANOMALY":180.3044,"EPHEMERIS_TYPE":0,"CLASSIFICATION_TYPE":"U","NORAD_CAT_ID":65997,"ELEMENT_SET_NO":999,"REV_AT_EPOCH":1873,"BSTAR":3.2957e-5,"MEAN_MOTION_DOT":-1.09e-6,"MEAN_MOTION_DDOT":0},{"OBJECT_NAME":"HULIANWANG DIGUI-90","OBJECT_ID":"2025-231D","EPOCH":"2026-03-02T14:51:53.422848","MEAN_MOTION":13.29329992,"ECCENTRICITY":6.09e-5,"INCLINATION":49.9982,"RA_OF_ASC_NODE":197.93,"ARG_OF_PERICENTER":177.9179,"MEAN_ANOMALY":182.1696,"EPHEMERIS_TYPE":0,"CLASSIFICATION_TYPE":"U","NORAD_CAT_ID":65998,"ELEMENT_SET_NO":999,"REV_AT_EPOCH":1871,"BSTAR":1.8197e-5,"MEAN_MOTION_DOT":-1.16e-6,"MEAN_MOTION_DDOT":0},{"OBJECT_NAME":"HULIANWANG DIGUI-91","OBJECT_ID":"2025-231E","EPOCH":"2026-03-02T18:16:22.782720","MEAN_MOTION":13.29329847,"ECCENTRICITY":6.29e-5,"INCLINATION":50.0001,"RA_OF_ASC_NODE":197.371,"ARG_OF_PERICENTER":178.6997,"MEAN_ANOMALY":181.3876,"EPHEMERIS_TYPE":0,"CLASSIFICATION_TYPE":"U","NORAD_CAT_ID":65999,"ELEMENT_SET_NO":999,"REV_AT_EPOCH":1873,"BSTAR":7.0059e-6,"MEAN_MOTION_DOT":-1.21e-6,"MEAN_MOTION_DDOT":0},{"OBJECT_NAME":"HULIANWANG DIGUI-92","OBJECT_ID":"2025-231F","EPOCH":"2026-03-02T19:52:35.692896","MEAN_MOTION":13.29330387,"ECCENTRICITY":6.26e-5,"INCLINATION":50.0041,"RA_OF_ASC_NODE":197.1024,"ARG_OF_PERICENTER":179.1464,"MEAN_ANOMALY":180.9409,"EPHEMERIS_TYPE":0,"CLASSIFICATION_TYPE":"U","NORAD_CAT_ID":66000,"ELEMENT_SET_NO":999,"REV_AT_EPOCH":1874,"BSTAR":3.6305e-5,"MEAN_MOTION_DOT":-1.07e-6,"MEAN_MOTION_DDOT":0},{"OBJECT_NAME":"HULIANWANG DIGUI-93","OBJECT_ID":"2025-231G","EPOCH":"2026-03-02T19:28:35.078304","MEAN_MOTION":13.29329426,"ECCENTRICITY":6.1e-5,"INCLINATION":50.0008,"RA_OF_ASC_NODE":196.9831,"ARG_OF_PERICENTER":177.9095,"MEAN_ANOMALY":182.1779,"EPHEMERIS_TYPE":0,"CLASSIFICATION_TYPE":"U","NORAD_CAT_ID":66001,"ELEMENT_SET_NO":999,"REV_AT_EPOCH":1874,"BSTAR":3.2645e-5,"MEAN_MOTION_DOT":-1.09e-6,"MEAN_MOTION_DDOT":0},{"OBJECT_NAME":"HULIANWANG DIGUI-94","OBJECT_ID":"2025-231H","EPOCH":"2026-03-02T17:52:18.680160","MEAN_MOTION":13.29330576,"ECCENTRICITY":6.29e-5,"INCLINATION":50.0048,"RA_OF_ASC_NODE":197.34,"ARG_OF_PERICENTER":178.5769,"MEAN_ANOMALY":181.5105,"EPHEMERIS_TYPE":0,"CLASSIFICATION_TYPE":"U","NORAD_CAT_ID":66002,"ELEMENT_SET_NO":999,"REV_AT_EPOCH":1873,"BSTAR":3.1875e-5,"MEAN_MOTION_DOT":-1.09e-6,"MEAN_MOTION_DDOT":0},{"OBJECT_NAME":"HULIANWANG DIGUI-95","OBJECT_ID":"2025-231J","EPOCH":"2026-03-02T19:16:45.147648","MEAN_MOTION":13.29325552,"ECCENTRICITY":6.27e-5,"INCLINATION":50.002,"RA_OF_ASC_NODE":196.9543,"ARG_OF_PERICENTER":175.3222,"MEAN_ANOMALY":184.7656,"EPHEMERIS_TYPE":0,"CLASSIFICATION_TYPE":"U","NORAD_CAT_ID":66003,"ELEMENT_SET_NO":999,"REV_AT_EPOCH":1874,"BSTAR":3.7008e-5,"MEAN_MOTION_DOT":-1.07e-6,"MEAN_MOTION_DDOT":0},{"OBJECT_NAME":"HULIANWANG DIGUI-96","OBJECT_ID":"2025-258A","EPOCH":"2026-03-02T16:14:03.977952","MEAN_MOTION":13.29331094,"ECCENTRICITY":3.66e-5,"INCLINATION":50.0054,"RA_OF_ASC_NODE":317.6431,"ARG_OF_PERICENTER":88.3283,"MEAN_ANOMALY":271.7631,"EPHEMERIS_TYPE":0,"CLASSIFICATION_TYPE":"U","NORAD_CAT_ID":66412,"ELEMENT_SET_NO":999,"REV_AT_EPOCH":1556,"BSTAR":0.00016235,"MEAN_MOTION_DOT":-4.9e-7,"MEAN_MOTION_DDOT":0}]
