HULIANWANG DIGUI-81     
1 65313U 25187J   26061.82523839 -.00000095  00000+0  62087-4 0  9997
2 65313  50.0054 227.2960 0001071 128.5998 231.4970 13.29341153 25569
HULIANWANG DIGUI-82     
1 65817U 25220A   26061.79263652  .00000054  00000+0  92208-4 0  9996
2 65817  86.4897  79.7972 0002226 102.6303 257.5080 13.24421714 20838
HULIANWANG DIGUI-83     
1 65818U 25220B   26061.78512962  .00000056  00000+0  96422-4 0  9991
2 65818  86.4919  79.8295 0002220 102.5930 257.5452 13.24420867 20833
HULIANWANG DIGUI-84     
1 65819U 25220C   26061.77754876  .00000064  00000+0  11509-3 0  9994
2 65819  86.4857  79.7246 0002216 101.5569 258.5814 13.24421291 20837
HULIANWANG DIGUI-85     
1 65820U 25220D   26061.76994885  .00000075  00000+0  14075-3 0  9994
2 65820  86.4917  79.8197 0002209 102.7226 257.4155 13.24421811 20831
HULIANWANG DIGUI-86     
1 65821U 25220E   26061.76247982  .00000073  00000+0  13584-3 0  9996
2 65821  86.4896  79.7815 0002203 102.5991 257.5390 13.24420634 20839
HULIANWANG DIGUI-87     
1 65995U 25231A   26061.78643651 -.00000112  00000+0  26684-4 0  9996
2 65995  49.9988 197.4837 0000607 173.5166 186.5714 13.29330143 18734
HULIANWANG DIGUI-88     
1 65996U 25231B   26061.79481074 -.00000107  00000+0  36744-4 0  9999
2 65996  49.9975 197.5138 0000621 178.5639 181.5235 13.29329164 18736
HULIANWANG DIGUI-89     
1 65997U 25231C   26061.77808066 -.00000109  00000+0  32957-4 0  9996
2 65997  49.9953 197.4014 0000638 179.7829 180.3044 13.29329818 18738
HULIANWANG DIGUI-90     
1 65998U 25231D   26061.61936832 -.00000116  00000+0  18197-4 0  9991
2 65998  49.9982 197.9300 0000609 177.9179 182.1696 13.29329992 18714
HULIANWANG DIGUI-91     
1 65999U 25231E   26061.76137480 -.00000121  00000+0  70059-5 0  9992
2 65999  50.0001 197.3710 0000629 178.6997 181.3876 13.29329847 18739
HULIANWANG DIGUI-92     
1 66000U 25231F   26061.82819089 -.00000107  00000+0  36305-4 0  9994
2 66000  50.0041 197.1024 0000626 179.1464 180.9409 13.29330387 18744
HULIANWANG DIGUI-93     
1 66001U 25231G   26061.81151711 -.00000109  00000+0  32645-4 0  9990
2 66001  50.0008 196.9831 0000610 177.9095 182.1779 13.29329426 18746
HULIANWANG DIGUI-94     
1 66002U 25231H   26061.74466065 -.00000109  00000+0  31875-4 0  9998
2 66002  50.0048 197.3400 0000629 178.5769 181.5105 13.29330576 18736
HULIANWANG DIGUI-95     
1 66003U 25231J   26061.80330032 -.00000107  00000+0  37008-4 0  9992
2 66003  50.0020 196.9543 0000627 175.3222 184.7656 13.29325552 18742
HULIANWANG DIGUI-96     
1 66412U 25258A   26061.67643493 -.00000049  00000+0  16235-3 0  9991
2 66412  50.0054 317.6431 0000366  88.3283 271.7631 13.29331094 15566
